[{"OBJECT_NAME":"DMSP 5D-3 F16 (USA 172)","OBJECT_ID":"2003-048A","EPOCH":"2026-03-03T04:54:07.258752","MEAN_MOTION":14.14458974,"ECCENTRICITY":0.0008198,"INCLINATION":98.9998,"RA_OF_ASC_NODE":85.2824,"ARG_OF_PERICENTER":88.7847,"MEAN_ANOMALY":350.5303,"EPHEMERIS_TYPE":0,"CLASSIFICATION_TYPE":"U","NORAD_CAT_ID":28054,"ELEMENT_SET_NO":999,"REV_AT_EPOCH":15450,"BSTAR":0.00010678,"MEAN_MOTION_DOT":1.59e-6,"MEAN_MOTION_DDOT":0},{"OBJECT_NAME":"METEOSAT-9 (MSG-2)","OBJECT_ID":"2005-049B","EPOCH":"2026-03-03T02:18:42.620832","MEAN_MOTION":1.00276507,"ECCENTRICITY":0.000187,"INCLINATION":9.122,"RA_OF_ASC_NODE":55.1947,"ARG_OF_PERICENTER":220.2001,"MEAN_ANOMALY":325.8556,"EPHEMERIS_TYPE":0,"CLASSIFICATION_TYPE":"U","NORAD_CAT_ID":28912,"ELEMENT_SET_NO":999,"REV_AT_EPOCH":593,"BSTAR":0,"MEAN_MOTION_DOT":1.13e-6,"MEAN_MOTION_DDOT":0},{"OBJECT_NAME":"DMSP 5D-3 F17 (USA 191)","OBJECT_ID":"2006-050A","EPOCH":"2026-03-03T04:08:18.080736","MEAN_MOTION":14.14960394,"ECCENTRICITY":0.0010132,"INCLINATION":98.7412,"RA_OF_ASC_NODE":70.9001,"ARG_OF_PERICENTER":5.5706,"MEAN_ANOMALY":354.5579,"EPHEMERIS_TYPE":0,"CLASSIFICATION_TYPE":"U","NORAD_CAT_ID":29522,"ELEMENT_SET_NO":999,"REV_AT_EPOCH":99742,"BSTAR":0.00012665,"MEAN_MOTION_DOT":2.02e-6,"MEAN_MOTION_DDOT":0},{"OBJECT_NAME":"FENGYUN 3A","OBJECT_ID":"2008-026A","EPOCH":"2026-03-02T19:51:54.868032","MEAN_MOTION":14.19543813,"ECCENTRICITY":0.000983,"INCLINATION":98.679,"RA_OF_ASC_NODE":4.7076,"ARG_OF_PERICENTER":75.9488,"MEAN_ANOMALY":284.2781,"EPHEMERIS_TYPE":0,"CLASSIFICATION_TYPE":"U","NORAD_CAT_ID":32958,"ELEMENT_SET_NO":999,"REV_AT_EPOCH":92031,"BSTAR":7.6469e-5,"MEAN_MOTION_DOT":1.18e-6,"MEAN_MOTION_DDOT":0},{"OBJECT_NAME":"GOES 14","OBJECT_ID":"2009-033A","EPOCH":"2026-03-03T03:03:30.826368","MEAN_MOTION":1.00123619,"ECCENTRICITY":0.000219,"INCLINATION":1.4156,"RA_OF_ASC_NODE":84.4389,"ARG_OF_PERICENTER":295.8945,"MEAN_ANOMALY":28.9504,"EPHEMERIS_TYPE":0,"CLASSIFICATION_TYPE":"U","NORAD_CAT_ID":35491,"ELEMENT_SET_NO":999,"REV_AT_EPOCH":552,"BSTAR":0,"MEAN_MOTION_DOT":1.14e-6,"MEAN_MOTION_DDOT":0},{"OBJECT_NAME":"DMSP 5D-3 F18 (USA 210)","OBJECT_ID":"2009-057A","EPOCH":"2026-03-03T03:15:06.100992","MEAN_MOTION":14.1483079,"ECCENTRICITY":0.0010763,"INCLINATION":98.8953,"RA_OF_ASC_NODE":43.1872,"ARG_OF_PERICENTER":187.0418,"MEAN_ANOMALY":173.0605,"EPHEMERIS_TYPE":0,"CLASSIFICATION_TYPE":"U","NORAD_CAT_ID":35951,"ELEMENT_SET_NO":999,"REV_AT_EPOCH":84459,"BSTAR":0.0001776,"MEAN_MOTION_DOT":2.98e-6,"MEAN_MOTION_DDOT":0},{"OBJECT_NAME":"EWS-G2 (GOES 15)","OBJECT_ID":"2010-008A","EPOCH":"2026-03-03T02:23:49.630272","MEAN_MOTION":1.00269225,"ECCENTRICITY":0.0001668,"INCLINATION":1.0058,"RA_OF_ASC_NODE":85.1718,"ARG_OF_PERICENTER":23.7748,"MEAN_ANOMALY":151.3712,"EPHEMERIS_TYPE":0,"CLASSIFICATION_TYPE":"U","NORAD_CAT_ID":36411,"ELEMENT_SET_NO":999,"REV_AT_EPOCH":5857,"BSTAR":0,"MEAN_MOTION_DOT":6.0e-8,"MEAN_MOTION_DDOT":0},{"OBJECT_NAME":"COMS 1","OBJECT_ID":"2010-032A","EPOCH":"2026-03-02T19:37:08.073984","MEAN_MOTION":1.0027253,"ECCENTRICITY":0.00011637,"INCLINATION":4.532,"RA_OF_ASC_NODE":76.8967,"ARG_OF_PERICENTER":272.6803,"MEAN_ANOMALY":233.4605,"EPHEMERIS_TYPE":0,"CLASSIFICATION_TYPE":"U","NORAD_CAT_ID":36744,"ELEMENT_SET_NO":999,"REV_AT_EPOCH":5002,"BSTAR":0,"MEAN_MOTION_DOT":-3.59e-6,"MEAN_MOTION_DDOT":0},{"OBJECT_NAME":"FENGYUN 3B","OBJECT_ID":"2010-059A","EPOCH":"2026-03-03T05:29:07.285920","MEAN_MOTION":14.14814579,"ECCENTRICITY":0.0022964,"INCLINATION":98.9784,"RA_OF_ASC_NODE":107.726,"ARG_OF_PERICENTER":125.5929,"MEAN_ANOMALY":314.2137,"EPHEMERIS_TYPE":0,"CLASSIFICATION_TYPE":"U","NORAD_CAT_ID":37214,"ELEMENT_SET_NO":999,"REV_AT_EPOCH":79244,"BSTAR":-6.0657e-5,"MEAN_MOTION_DOT":-1.62e-6,"MEAN_MOTION_DDOT":0},{"OBJECT_NAME":"SUOMI NPP","OBJECT_ID":"2011-061A","EPOCH":"2026-03-03T04:30:55.798848","MEAN_MOTION":14.19541363,"ECCENTRICITY":4.41e-5,"INCLINATION":98.7863,"RA_OF_ASC_NODE":3.8427,"ARG_OF_PERICENTER":293.3252,"MEAN_ANOMALY":66.7877,"EPHEMERIS_TYPE":0,"CLASSIFICATION_TYPE":"U","NORAD_CAT_ID":37849,"ELEMENT_SET_NO":999,"REV_AT_EPOCH":74340,"BSTAR":7.0687e-5,"MEAN_MOTION_DOT":1.05e-6,"MEAN_MOTION_DDOT":0},{"OBJECT_NAME":"METEOSAT-10 (MSG-3)","OBJECT_ID":"2012-035B","EPOCH":"2026-03-02T17:32:21.806016","MEAN_MOTION":1.00276905,"ECCENTRICITY":0.00024871,"INCLINATION":4.4198,"RA_OF_ASC_NODE":61.47,"ARG_OF_PERICENTER":292.1297,"MEAN_ANOMALY":70.2445,"EPHEMERIS_TYPE":0,"CLASSIFICATION_TYPE":"U","NORAD_CAT_ID":38552,"ELEMENT_SET_NO":999,"REV_AT_EPOCH":4979,"BSTAR":0,"MEAN_MOTION_DOT":-1.9e-7,"MEAN_MOTION_DDOT":0},{"OBJECT_NAME":"METOP-B","OBJECT_ID":"2012-049A","EPOCH":"2026-03-03T02:38:10.970016","MEAN_MOTION":14.21442069,"ECCENTRICITY":0.000124,"INCLINATION":98.6655,"RA_OF_ASC_NODE":115.657,"ARG_OF_PERICENTER":302.2211,"MEAN_ANOMALY":57.8846,"EPHEMERIS_TYPE":0,"CLASSIFICATION_TYPE":"U","NORAD_CAT_ID":38771,"ELEMENT_SET_NO":999,"REV_AT_EPOCH":69819,"BSTAR":8.1125e-5,"MEAN_MOTION_DOT":1.34e-6,"MEAN_MOTION_DDOT":0},{"OBJECT_NAME":"INSAT-3D","OBJECT_ID":"2013-038B","EPOCH":"2026-03-02T23:17:17.654208","MEAN_MOTION":1.00273934,"ECCENTRICITY":0.0001804,"INCLINATION":1.6518,"RA_OF_ASC_NODE":83.9345,"ARG_OF_PERICENTER":238.4653,"MEAN_ANOMALY":317.1344,"EPHEMERIS_TYPE":0,"CLASSIFICATION_TYPE":"U","NORAD_CAT_ID":39216,"ELEMENT_SET_NO":999,"REV_AT_EPOCH":4601,"BSTAR":0,"MEAN_MOTION_DOT":-3.54e-6,"MEAN_MOTION_DDOT":0},{"OBJECT_NAME":"FENGYUN 3C","OBJECT_ID":"2013-052A","EPOCH":"2026-03-03T04:10:11.860896","MEAN_MOTION":14.15726401,"ECCENTRICITY":0.001415,"INCLINATION":98.4881,"RA_OF_ASC_NODE":40.9756,"ARG_OF_PERICENTER":332.8381,"MEAN_ANOMALY":27.2052,"EPHEMERIS_TYPE":0,"CLASSIFICATION_TYPE":"U","NORAD_CAT_ID":39260,"ELEMENT_SET_NO":999,"REV_AT_EPOCH":64356,"BSTAR":9.5582e-5,"MEAN_MOTION_DOT":1.46e-6,"MEAN_MOTION_DDOT":0},{"OBJECT_NAME":"METEOR-M 2","OBJECT_ID":"2014-037A","EPOCH":"2026-03-03T04:58:33.413952","MEAN_MOTION":14.21426488,"ECCENTRICITY":0.0005776,"INCLINATION":98.5008,"RA_OF_ASC_NODE":41.7575,"ARG_OF_PERICENTER":356.8575,"MEAN_ANOMALY":3.2566,"EPHEMERIS_TYPE":0,"CLASSIFICATION_TYPE":"U","NORAD_CAT_ID":40069,"ELEMENT_SET_NO":999,"REV_AT_EPOCH":60426,"BSTAR":0.00026412,"MEAN_MOTION_DOT":5.35e-6,"MEAN_MOTION_DDOT":0},{"OBJECT_NAME":"HIMAWARI-8","OBJECT_ID":"2014-060A","EPOCH":"2026-03-02T20:00:38.439072","MEAN_MOTION":1.00270021,"ECCENTRICITY":8.683e-5,"INCLINATION":0.0178,"RA_OF_ASC_NODE":119.6241,"ARG_OF_PERICENTER":185.8972,"MEAN_ANOMALY":295.8861,"EPHEMERIS_TYPE":0,"CLASSIFICATION_TYPE":"U","NORAD_CAT_ID":40267,"ELEMENT_SET_NO":999,"REV_AT_EPOCH":4169,"BSTAR":0,"MEAN_MOTION_DOT":-2.92e-6,"MEAN_MOTION_DDOT":0},{"OBJECT_NAME":"FENGYUN 2G","OBJECT_ID":"2014-090A","EPOCH":"2026-03-03T00:51:31.122432","MEAN_MOTION":1.0027494,"ECCENTRICITY":0.0001998,"INCLINATION":5.3704,"RA_OF_ASC_NODE":74.1018,"ARG_OF_PERICENTER":153.0682,"MEAN_ANOMALY":46.1729,"EPHEMERIS_TYPE":0,"CLASSIFICATION_TYPE":"U","NORAD_CAT_ID":40367,"ELEMENT_SET_NO":999,"REV_AT_EPOCH":4093,"BSTAR":0,"MEAN_MOTION_DOT":-3.16e-6,"MEAN_MOTION_DDOT":0}]
